IRIDIUM 126             
1 42809U 17039G   25272.63299429  .00000107  00000+0  31117-4 0  9999
2 42809  86.3917 102.5829 0002249  93.5173 266.6280 14.34218686432609
IRIDIUM 124             
1 42810U 17039H   25272.78442114  .00000978  00000+0  28467-3 0  9997
2 42810  86.4507  39.2059 0002149  89.0751 271.0697 14.43284733437556
IRIDIUM 128             
1 42811U 17039J   25272.97256055  .00000464  00000+0  15871-3 0  9991
2 42811  86.3971 133.9617 0002184  76.5095 283.6345 14.34220729432687
IRIDIUM 121             
1 42812U 17039K   25272.93110152 -.00000380  00000+0 -14265-3 0  9990
2 42812  86.3917 102.4843 0001995  85.9402 274.2022 14.34214818432528
IRIDIUM 133             
1 42955U 17061A   25272.65544384  .00000462  00000+0  15778-3 0  9999
2 42955  86.3975 134.2057 0002143  83.9655 276.1785 14.34220795417435
IRIDIUM 100             
1 42956U 17061B   25272.64910536  .00000191  00000+0  61130-4 0  9998
2 42956  86.3971 134.1330 0002254  85.4091 274.7362 14.34218067417433
IRIDIUM 122             
1 42957U 17061C   25272.68715796  .00000198  00000+0  63759-4 0  9990
2 42957  86.3972 134.1163 0002217  84.8162 275.3287 14.34216501417445
IRIDIUM 129             
1 42958U 17061D   25272.71252773  .00000387  00000+0  13110-3 0  9991
2 42958  86.3976 134.1702 0001931  98.5734 261.5680 14.34218679417462
